0 FENGYUN 1C DEB
1 38794U 99025EUJ 13292.42820352  .00001180  00000-0  11924-2 0   382
2 38794 099.0653 162.7004 0223408 160.6829 200.4435 13.68698763151682
0 FENGYUN 1C DEB
1 38794U 99025EUJ 13294.47504153  .00001298  00000-0  13100-2 0   396
2 38794 099.0571 164.6315 0221721 155.2717 205.9352 13.68706091151962
